{
  "type": "FeatureCollection",
  "features": [
    {
      "type": "Feature",
      "properties": {
        "norad_id": 35165,
        "name": "FENGYUN 1C DEB",
        "group": "fengyun-1c-debris",
        "lat": -66.13660264954117,
        "lon": 88.59778664270047,
        "alt_km": 801.8604364034545,
        "timestamp": "2025-12-02T07:10:09.403018+00:00",
        "meta_object_name": "FENGYUN 1C DEB",
        "meta_object_id": "1999-025DMV",
        "meta_epoch": "2025-11-30T05:14:00.190464",
        "meta_mean_motion": 14.33570134,
        "meta_eccentricity": 0.00218891,
        "meta_inclination": 98.8778,
        "meta_ra_of_asc_node": 65.7738,
        "meta_arg_of_pericenter": 100.7376,
        "meta_mean_anomaly": 259.6273,
        "meta_ephemeris_type": 0,
        "meta_classification_type": "U",
        "meta_norad_cat_id": 35165,
        "meta_element_set_no": 999,
        "meta_rev_at_epoch": 89541,
        "meta_bstar": 0.0024382815,
        "meta_mean_motion_dot": 6.727e-05,
        "meta_mean_motion_ddot": 0,
        "tle_line1": "1 35165U 99025DMV 25334.21805776  .00006727  00000+0  24383-2 0  9991",
        "tle_line2": "2 35165  98.8778  65.7738 0021889 100.7376 259.6273 14.33570134895419"
      },
      "geometry": {
        "type": "Point",
        "coordinates": [
          88.59778664270047,
          -66.13660264954117
        ]
      }
    },
    {
      "type": "Feature",
      "properties": {
        "norad_id": 35167,
        "name": "FENGYUN 1C DEB",
        "group": "fengyun-1c-debris",
        "lat": 28.752038809480425,
        "lon": 154.45485576128323,
        "alt_km": 767.0010015538228,
        "timestamp": "2025-12-02T07:10:09.403028+00:00",
        "meta_object_name": "FENGYUN 1C DEB",
        "meta_object_id": "1999-025DMX",
        "meta_epoch": "2025-11-27T17:22:23.212128",
        "meta_mean_motion": 14.31084388,
        "meta_eccentricity": 0.02289339,
        "meta_inclination": 98.4496,
        "meta_ra_of_asc_node": 325.3238,
        "meta_arg_of_pericenter": 248.7447,
        "meta_mean_anomaly": 108.915,
        "meta_ephemeris_type": 0,
        "meta_classification_type": "U",
        "meta_norad_cat_id": 35167,
        "meta_element_set_no": 999,
        "meta_rev_at_epoch": 69805,
        "meta_bstar": 0.00055665644,
        "meta_mean_motion_dot": 1.904e-05,
        "meta_mean_motion_ddot": 0,
        "tle_line1": "1 35167U 99025DMX 25331.72387977  .00001904  00000+0  55666-3 0  9995",
        "tle_line2": "2 35167  98.4496 325.3238 0228933 248.7447 108.9150 14.31084388698055"
      },
      "geometry": {
        "type": "Point",
        "coordinates": [
          154.45485576128323,
          28.752038809480425
        ]
      }
    },
    {
      "type": "Feature",
      "properties": {
        "norad_id": 35169,
        "name": "FENGYUN 1C DEB",
        "group": "fengyun-1c-debris",
        "lat": -69.41475878512776,
        "lon": 13.48831313293458,
        "alt_km": 744.3876416998064,
        "timestamp": "2025-12-02T07:10:09.403038+00:00",
        "meta_object_name": "FENGYUN 1C DEB",
        "meta_object_id": "1999-025DMZ",
        "meta_epoch": "2025-11-26T21:36:39.203136",
        "meta_mean_motion": 14.58542348,
        "meta_eccentricity": 0.0152236,
        "meta_inclination": 99.1292,
        "meta_ra_of_asc_node": 212.9108,
        "meta_arg_of_pericenter": 155.515,
        "meta_mean_anomaly": 205.3375,
        "meta_ephemeris_type": 0,
        "meta_classification_type": "U",
        "meta_norad_cat_id": 35169,
        "meta_element_set_no": 999,
        "meta_rev_at_epoch": 65549,
        "meta_bstar": 0.00060964,
        "meta_mean_motion_dot": 3.265e-05,
        "meta_mean_motion_ddot": 0,
        "tle_line1": "1 35169U 99025DMZ 25330.90045374  .00003265  00000+0  60964-3 0  9997",
        "tle_line2": "2 35169  99.1292 212.9108 0152236 155.5150 205.3375 14.58542348655490"
      },
      "geometry": {
        "type": "Point",
        "coordinates": [
          13.48831313293458,
          -69.41475878512776
        ]
      }
    },
    {
      "type": "Feature",
      "properties": {
        "norad_id": 35171,
        "name": "FENGYUN 1C DEB",
        "group": "fengyun-1c-debris",
        "lat": -4.931565529052876,
        "lon": -52.88155921605133,
        "alt_km": 1010.5863131836786,
        "timestamp": "2025-12-02T07:10:09.403048+00:00",
        "meta_object_name": "FENGYUN 1C DEB",
        "meta_object_id": "1999-025DNB",
        "meta_epoch": "2025-11-30T16:24:33.147072",
        "meta_mean_motion": 13.94881968,
        "meta_eccentricity": 0.0137461,
        "meta_inclination": 99.0083,
        "meta_ra_of_asc_node": 126.3258,
        "meta_arg_of_pericenter": 351.9725,
        "meta_mean_anomaly": 7.9237,
        "meta_ephemeris_type": 0,
        "meta_classification_type": "U",
        "meta_norad_cat_id": 35171,
        "meta_element_set_no": 999,
        "meta_rev_at_epoch": 88390,
        "meta_bstar": 0.0015016572,
        "meta_mean_motion_dot": 2.139e-05,
        "meta_mean_motion_ddot": 0,
        "tle_line1": "1 35171U 99025DNB 25334.68371698  .00002139  00000+0  15017-2 0  9997",
        "tle_line2": "2 35171  99.0083 126.3258 0137461 351.9725   7.9237 13.94881968883902"
      },
      "geometry": {
        "type": "Point",
        "coordinates": [
          -52.88155921605133,
          -4.931565529052876
        ]
      }
    },
    {
      "type": "Feature",
      "properties": {
        "norad_id": 35173,
        "name": "FENGYUN 1C DEB",
        "group": "fengyun-1c-debris",
        "lat": 36.31457283079424,
        "lon": -124.5151727150846,
        "alt_km": 1137.3933806084533,
        "timestamp": "2025-12-02T07:10:09.403059+00:00",
        "meta_object_name": "FENGYUN 1C DEB",
        "meta_object_id": "1999-025DND",
        "meta_epoch": "2025-11-30T23:52:38.856288",
        "meta_mean_motion": 13.37232995,
        "meta_eccentricity": 0.04900671,
        "meta_inclination": 99.7863,
        "meta_ra_of_asc_node": 46.9395,
        "meta_arg_of_pericenter": 242.1429,
        "meta_mean_anomaly": 112.9236,
        "meta_ephemeris_type": 0,
        "meta_classification_type": "U",
        "meta_norad_cat_id": 35173,
        "meta_element_set_no": 999,
        "meta_rev_at_epoch": 65672,
        "meta_bstar": 0.0023582521,
        "meta_mean_motion_dot": 2.416e-05,
        "meta_mean_motion_ddot": 0,
        "tle_line1": "1 35173U 99025DND 25334.99489417  .00002416  00000+0  23583-2 0  9997",
        "tle_line2": "2 35173  99.7863  46.9395 0490067 242.1429 112.9236 13.37232995656723"
      },
      "geometry": {
        "type": "Point",
        "coordinates": [
          -124.5151727150846,
          36.31457283079424
        ]
      }
    },
    {
      "type": "Feature",
      "properties": {
        "norad_id": 35174,
        "name": "FENGYUN 1C DEB",
        "group": "fengyun-1c-debris",
        "lat": 56.94821810268487,
        "lon": -65.0006395689619,
        "alt_km": 668.7270624077664,
        "timestamp": "2025-12-02T07:10:09.403069+00:00",
        "meta_object_name": "FENGYUN 1C DEB",
        "meta_object_id": "1999-025DNE",
        "meta_epoch": "2025-11-20T15:53:09.659040",
        "meta_mean_motion": 14.97261972,
        "meta_eccentricity": 0.01569814,
        "meta_inclination": 98.9653,
        "meta_ra_of_asc_node": 295.6935,
        "meta_arg_of_pericenter": 254.7539,
        "meta_mean_anomaly": 103.6277,
        "meta_ephemeris_type": 0,
        "meta_classification_type": "U",
        "meta_norad_cat_id": 35174,
        "meta_element_set_no": 999,
        "meta_rev_at_epoch": 89835,
        "meta_bstar": 0.0019136785,
        "meta_mean_motion_dot": 0.00028569,
        "meta_mean_motion_ddot": 0,
        "tle_line1": "1 35174U 99025DNE 25324.66191735  .00028569  00000+0  19137-2 0  9991",
        "tle_line2": "2 35174  98.9653 295.6935 0156981 254.7539 103.6277 14.97261972898353"
      },
      "geometry": {
        "type": "Point",
        "coordinates": [
          -65.0006395689619,
          56.94821810268487
        ]
      }
    },
    {
      "type": "Feature",
      "properties": {
        "norad_id": 35175,
        "name": "FENGYUN 1C DEB",
        "group": "fengyun-1c-debris",
        "lat": -58.69297586611829,
        "lon": 150.58049229090048,
        "alt_km": 814.4197305651933,
        "timestamp": "2025-12-02T07:10:09.403079+00:00",
        "meta_object_name": "FENGYUN 1C DEB",
        "meta_object_id": "1999-025DNF",
        "meta_epoch": "2025-11-30T06:43:52.665888",
        "meta_mean_motion": 14.21268551,
        "meta_eccentricity": 0.00576825,
        "meta_inclination": 98.5751,
        "meta_ra_of_asc_node": 342.9857,
        "meta_arg_of_pericenter": 316.5813,
        "meta_mean_anomaly": 43.0829,
        "meta_ephemeris_type": 0,
        "meta_classification_type": "U",
        "meta_norad_cat_id": 35175,
        "meta_element_set_no": 999,
        "meta_rev_at_epoch": 61058,
        "meta_bstar": 0.0004121206,
        "meta_mean_motion_dot": 8.7e-06,
        "meta_mean_motion_ddot": 0,
        "tle_line1": "1 35175U 99025DNF 25334.28047067  .00000870  00000+0  41212-3 0  9994",
        "tle_line2": "2 35175  98.5751 342.9857 0057682 316.5813  43.0829 14.21268551610582"
      },
      "geometry": {
        "type": "Point",
        "coordinates": [
          150.58049229090048,
          -58.69297586611829
        ]
      }
    }
  ]
}